[{"OBJECT_NAME":"STARLINK-30903","OBJECT_ID":"2023-177E","EPOCH":"2026-03-09T22:00:01.999584","MEAN_MOTION":15.26760945,"ECCENTRICITY":0.00016428,"INCLINATION":43.001,"RA_OF_ASC_NODE":349.1146,"ARG_OF_PERICENTER":270.9576,"MEAN_ANOMALY":124.2836,"EPHEMERIS_TYPE":0,"CLASSIFICATION_TYPE":"U","NORAD_CAT_ID":58355,"ELEMENT_SET_NO":999,"REV_AT_EPOCH":578,"BSTAR":-0.00070103944,"MEAN_MOTION_DOT":-0.00019028,"MEAN_MOTION_DDOT":0},{"OBJECT_NAME":"OBJECT M","OBJECT_ID":"2024-205M","EPOCH":"2026-03-09T22:23:47.520096","MEAN_MOTION":15.27663844,"ECCENTRICITY":0.00036602,"INCLINATION":97.3915,"RA_OF_ASC_NODE":144.193,"ARG_OF_PERICENTER":310.2554,"MEAN_ANOMALY":49.8364,"EPHEMERIS_TYPE":0,"CLASSIFICATION_TYPE":"U","NORAD_CAT_ID":61905,"ELEMENT_SET_NO":999,"REV_AT_EPOCH":7334,"BSTAR":0.00036391974,"MEAN_MOTION_DOT":9.771e-5,"MEAN_MOTION_DDOT":0}]
